{
  "norad_id": 67395,
  "name": "PANDORA",
  "history": [
    {
      "epoch": "2026-03-28T21:05:47.123232",
      "apogee_km": 608.8288034054249,
      "perigee_km": 600.0364913568364,
      "latitude_deg": -62.88258899250425,
      "longitude_deg": -76.1143075202126,
      "semi_major_axis_km": 6982.56964738113,
      "eccentricity": 0.00062959,
      "inclination_deg": 97.8041,
      "raan_deg": 87.7967,
      "arg_perigee_deg": 45.3658,
      "mean_anomaly_deg": 314.8071,
      "mean_motion_rev_day": 14.87920912
    },
    {
      "epoch": "2026-03-28T22:42:37.452384",
      "apogee_km": 608.8198023018967,
      "perigee_km": 600.0441096380328,
      "latitude_deg": 20.470556584230863,
      "longitude_deg": -69.6583862400148,
      "semi_major_axis_km": 6982.568955969964,
      "eccentricity": 0.0006284,
      "inclination_deg": 97.8041,
      "raan_deg": 87.8629,
      "arg_perigee_deg": 45.4387,
      "mean_anomaly_deg": 314.7342,
      "mean_motion_rev_day": 14.87921133
    }
  ]
}